[{"OBJECT_NAME":"SENTINEL-1A","OBJECT_ID":"2014-016A","EPOCH":"2026-03-10T00:10:49.728000","MEAN_MOTION":14.5919833,"ECCENTRICITY":0.00013278,"INCLINATION":98.1822,"RA_OF_ASC_NODE":77.9733,"ARG_OF_PERICENTER":84.6895,"MEAN_ANOMALY":275.4456,"EPHEMERIS_TYPE":0,"CLASSIFICATION_TYPE":"U","NORAD_CAT_ID":39634,"ELEMENT_SET_NO":999,"REV_AT_EPOCH":63555,"BSTAR":5.6499537e-5,"MEAN_MOTION_DOT":2.21e-6,"MEAN_MOTION_DDOT":0},{"OBJECT_NAME":"FENGYUN 1C DEB","OBJECT_ID":"1999-025AET","EPOCH":"2026-03-09T17:09:20.409984","MEAN_MOTION":14.41084356,"ECCENTRICITY":0.0083429,"INCLINATION":98.8311,"RA_OF_ASC_NODE":335.4518,"ARG_OF_PERICENTER":79.7043,"MEAN_ANOMALY":281.3538,"EPHEMERIS_TYPE":0,"CLASSIFICATION_TYPE":"U","NORAD_CAT_ID":30432,"ELEMENT_SET_NO":999,"REV_AT_EPOCH":99987,"BSTAR":0.0006693046,"MEAN_MOTION_DOT":2.198e-5,"MEAN_MOTION_DDOT":0}]
